{
  "links" : {
    "next" : "https://api.nasa.gov/neo/rest/v1/feed?start_date=2000-10-23&end_date=2000-10-23&detailed=true&api_key=t0TVs3DtDT2H8Oy2Zy8m2eVrNsAVKAexjcZXUckd",
    "prev" : "https://api.nasa.gov/neo/rest/v1/feed?start_date=2000-10-21&end_date=2000-10-21&detailed=true&api_key=t0TVs3DtDT2H8Oy2Zy8m2eVrNsAVKAexjcZXUckd",
    "self" : "https://api.nasa.gov/neo/rest/v1/feed?start_date=2000-10-22&end_date=2000-10-22&detailed=true&api_key=t0TVs3DtDT2H8Oy2Zy8m2eVrNsAVKAexjcZXUckd"
  },
  "element_count" : 1,
  "near_earth_objects" : {
    "2000-10-22" : [ {
      "links" : {
        "self" : "https://api.nasa.gov/neo/rest/v1/neo/3757425?api_key=t0TVs3DtDT2H8Oy2Zy8m2eVrNsAVKAexjcZXUckd"
      },
      "neo_reference_id" : "3757425",
      "name" : "(2016 PK66)",
      "nasa_jpl_url" : "http://ssd.jpl.nasa.gov/sbdb.cgi?sstr=3757425",
      "absolute_magnitude_h" : 21.1,
      "estimated_diameter" : {
        "kilometers" : {
          "estimated_diameter_min" : 0.160160338,
          "estimated_diameter_max" : 0.358129403
        },
        "meters" : {
          "estimated_diameter_min" : 160.1603379786,
          "estimated_diameter_max" : 358.1294030194
        },
        "miles" : {
          "estimated_diameter_min" : 0.0995189894,
          "estimated_diameter_max" : 0.2225312253
        },
        "feet" : {
          "estimated_diameter_min" : 525.4604432536,
          "estimated_diameter_max" : 1174.9652706022
        }
      },
      "is_potentially_hazardous_asteroid" : false,
      "close_approach_data" : [ {
        "close_approach_date" : "2000-10-22",
        "epoch_date_close_approach" : 972198000000,
        "relative_velocity" : {
          "kilometers_per_second" : "10.5964606896",
          "kilometers_per_hour" : "38147.258482564",
          "miles_per_hour" : "23703.2229165687"
        },
        "miss_distance" : {
          "astronomical" : "0.2083507964",
          "lunar" : "81.0484619141",
          "kilometers" : "31168836",
          "miles" : "19367416"
        },
        "orbiting_body" : "Earth"
      } ],
      "orbital_data" : {
        "orbit_id" : "7",
        "orbit_determination_date" : "2017-04-20 12:23:01",
        "orbit_uncertainty" : "5",
        "minimum_orbit_intersection" : ".066713",
        "jupiter_tisserand_invariant" : "4.684",
        "epoch_osculation" : "2458000.5",
        "eccentricity" : ".4981389828131538",
        "semi_major_axis" : "1.369832922353516",
        "inclination" : "5.852363583781273",
        "ascending_node_longitude" : "39.63156480485205",
        "orbital_period" : "585.5983259290913",
        "perihelion_distance" : ".687465743788366",
        "perihelion_argument" : "45.36665556226212",
        "aphelion_distance" : "2.052200100918667",
        "perihelion_time" : "2457732.104020087923",
        "mean_anomaly" : "164.9980003188184",
        "mean_motion" : ".6147558557802153",
        "equinox" : "J2000"
      }
    } ]
  }
}